[{"OBJECT_NAME":"STARLINK-3542","OBJECT_ID":"2022-022A","EPOCH":"2026-03-09T04:33:59.245920","MEAN_MOTION":15.0886006,"ECCENTRICITY":0.00012096,"INCLINATION":53.2191,"RA_OF_ASC_NODE":21.3629,"ARG_OF_PERICENTER":96.3422,"MEAN_ANOMALY":263.7708,"EPHEMERIS_TYPE":0,"CLASSIFICATION_TYPE":"U","NORAD_CAT_ID":51852,"ELEMENT_SET_NO":999,"REV_AT_EPOCH":22168,"BSTAR":0.00023272751,"MEAN_MOTION_DOT":3.42e-5,"MEAN_MOTION_DDOT":0},{"OBJECT_NAME":"CZ-11 R\/B","OBJECT_ID":"2018-008G","EPOCH":"2026-03-09T21:32:14.586720","MEAN_MOTION":14.3224485,"ECCENTRICITY":0.03634479,"INCLINATION":98.2374,"RA_OF_ASC_NODE":58.5812,"ARG_OF_PERICENTER":26.4919,"MEAN_ANOMALY":335.4347,"EPHEMERIS_TYPE":0,"CLASSIFICATION_TYPE":"U","NORAD_CAT_ID":43161,"ELEMENT_SET_NO":999,"REV_AT_EPOCH":42445,"BSTAR":0.00036976397,"MEAN_MOTION_DOT":2.03e-5,"MEAN_MOTION_DDOT":0}]
